METOP-C                 
1 43689U 18087A   26087.82610304  .00000111  00000+0  70378-4 0  9992
2 43689  98.6725 148.8706 0001966  73.7162 286.4232 14.21503119383414
GEO-KOMPSAT-2A          
1 43823U 18100A   26087.92671383 -.00000363  00000+0  00000+0 0  9993
2 43823   0.0544  36.1728 0001644  15.4458 236.5966  1.00270246 26821
METEOR-M2 2             
1 44387U 19038A   26087.95264854 -.00000038  00000+0  33976-5 0  9997
2 44387  98.9111  74.0732 0000289 200.1462 159.9705 14.24340726349874
ARKTIKA-M 1             
1 47719U 21016A   26086.24697042 -.00000098  00000+0  00000+0 0  9990
2 47719  63.2179  69.3783 7253959 269.5617  15.0995  2.00616454 37142
FENGYUN 3E              
1 49008U 21062A   26087.93964704 -.00000275  00000+0 -10883-3 0  9995
2 49008  98.7520  92.2393 0001347   3.2848 356.8337 14.19895061245192
GOES 18                 
1 51850U 22021A   26087.73156086  .00000077  00000+0  00000+0 0  9997
2 51850   0.0455  18.7374 0000438  36.9621 256.7912  1.00272342  5780
NOAA 21 (JPSS-2)        
1 54234U 22150A   26087.89385379  .00000074  00000+0  55883-4 0  9996
2 54234  98.7576  27.9422 0002751  73.0528 287.0950 14.19557101175152
METEOSAT-12 (MTG-I1)    
1 54743U 22170C   26087.82990554 -.00000026  00000+0  00000+0 0  9997
2 54743   0.7315  25.4287 0001869 290.1317 169.0870  1.00272753 12175
TIANMU-1 03             
1 55973U 23039A   26087.92651282  .00018777  00000+0  40137-3 0  9991
2 55973  97.5195 258.9083 0003405  48.0499 312.1039 15.44878769168438
TIANMU-1 04             
1 55974U 23039B   26087.94471443  .00021933  00000+0  46130-3 0  9990
2 55974  97.5128 258.0821 0003889  40.7332 319.4207 15.45320912168448
TIANMU-1 05             
1 55975U 23039C   26087.90384953  .00019200  00000+0  41117-3 0  9990
2 55975  97.5174 258.5292 0003639  67.6881 292.4752 15.44817691168413
TIANMU-1 06             
1 55976U 23039D   26087.94419968  .00020119  00000+0  42324-3 0  9992
2 55976  97.5184 259.1291 0003795  60.4618 299.7009 15.45333657168447
FENGYUN 3G              
1 56232U 23055A   26087.87826337  .00035525  00000+0  56287-3 0  9990
2 56232  49.9934  40.1330 0004773  15.0038 345.1070 15.53004214167523
METEOR-M2 3             
1 57166U 23091A   26087.92903308  .00000003  00000+0  19952-4 0  9999
2 57166  98.6172 144.5177 0004774  55.3160 304.8468 14.24039559143093
TIANMU-1 07             
1 57399U 23101A   26087.88873525  .00008215  00000+0  29192-3 0  9990
2 57399  97.2691 140.4067 0004652  95.4112 264.7659 15.29251403149375
TIANMU-1 08             
1 57400U 23101B   26085.76300744  .00000258  00000+0  11605-4 0  9996
2 57400  97.2683 138.1078 0005815  81.6822 278.5077 15.29307245149049
TIANMU-1 09             
1 57401U 23101C   26087.90558667  .00008223  00000+0  29204-3 0  9997
2 57401  97.2639 139.6635 0005113  94.2461 265.9364 15.29268538149372
