[{"OBJECT_NAME":"METOP-C","OBJECT_ID":"2018-087A","EPOCH":"2026-03-28T19:49:35.302656","MEAN_MOTION":14.21503119,"ECCENTRICITY":0.00019669,"INCLINATION":98.6725,"RA_OF_ASC_NODE":148.8706,"ARG_OF_PERICENTER":73.7162,"MEAN_ANOMALY":286.4232,"EPHEMERIS_TYPE":0,"CLASSIFICATION_TYPE":"U","NORAD_CAT_ID":43689,"ELEMENT_SET_NO":999,"REV_AT_EPOCH":38341,"BSTAR":7.037751e-5,"MEAN_MOTION_DOT":1.11e-6,"MEAN_MOTION_DDOT":0},{"OBJECT_NAME":"GEO-KOMPSAT-2A","OBJECT_ID":"2018-100A","EPOCH":"2026-03-28T22:14:28.074912","MEAN_MOTION":1.00270246,"ECCENTRICITY":0.0001644,"INCLINATION":0.0544,"RA_OF_ASC_NODE":36.1728,"ARG_OF_PERICENTER":15.4458,"MEAN_ANOMALY":236.5966,"EPHEMERIS_TYPE":0,"CLASSIFICATION_TYPE":"U","NORAD_CAT_ID":43823,"ELEMENT_SET_NO":999,"REV_AT_EPOCH":2682,"BSTAR":0,"MEAN_MOTION_DOT":-3.63e-6,"MEAN_MOTION_DDOT":0},{"OBJECT_NAME":"METEOR-M2 2","OBJECT_ID":"2019-038A","EPOCH":"2026-03-28T22:51:48.833856","MEAN_MOTION":14.24340726,"ECCENTRICITY":2.899e-5,"INCLINATION":98.9111,"RA_OF_ASC_NODE":74.0732,"ARG_OF_PERICENTER":200.1462,"MEAN_ANOMALY":159.9705,"EPHEMERIS_TYPE":0,"CLASSIFICATION_TYPE":"U","NORAD_CAT_ID":44387,"ELEMENT_SET_NO":999,"REV_AT_EPOCH":34987,"BSTAR":3.397626e-6,"MEAN_MOTION_DOT":-3.8e-7,"MEAN_MOTION_DDOT":0},{"OBJECT_NAME":"ARKTIKA-M 1","OBJECT_ID":"2021-016A","EPOCH":"2026-03-27T05:55:38.244288","MEAN_MOTION":2.00616454,"ECCENTRICITY":0.7253959,"INCLINATION":63.2179,"RA_OF_ASC_NODE":69.3783,"ARG_OF_PERICENTER":269.5617,"MEAN_ANOMALY":15.0995,"EPHEMERIS_TYPE":0,"CLASSIFICATION_TYPE":"U","NORAD_CAT_ID":47719,"ELEMENT_SET_NO":999,"REV_AT_EPOCH":3714,"BSTAR":0,"MEAN_MOTION_DOT":-9.8e-7,"MEAN_MOTION_DDOT":0},{"OBJECT_NAME":"FENGYUN 3E","OBJECT_ID":"2021-062A","EPOCH":"2026-03-28T22:33:05.504256","MEAN_MOTION":14.19895061,"ECCENTRICITY":0.00013474,"INCLINATION":98.752,"RA_OF_ASC_NODE":92.2393,"ARG_OF_PERICENTER":3.2848,"MEAN_ANOMALY":356.8337,"EPHEMERIS_TYPE":0,"CLASSIFICATION_TYPE":"U","NORAD_CAT_ID":49008,"ELEMENT_SET_NO":999,"REV_AT_EPOCH":24519,"BSTAR":-0.00010883269,"MEAN_MOTION_DOT":-2.75e-6,"MEAN_MOTION_DDOT":0},{"OBJECT_NAME":"GOES 18","OBJECT_ID":"2022-021A","EPOCH":"2026-03-28T17:33:26.858304","MEAN_MOTION":1.00272342,"ECCENTRICITY":4.383e-5,"INCLINATION":0.0455,"RA_OF_ASC_NODE":18.7374,"ARG_OF_PERICENTER":36.9621,"MEAN_ANOMALY":256.7912,"EPHEMERIS_TYPE":0,"CLASSIFICATION_TYPE":"U","NORAD_CAT_ID":51850,"ELEMENT_SET_NO":999,"REV_AT_EPOCH":578,"BSTAR":0,"MEAN_MOTION_DOT":7.7e-7,"MEAN_MOTION_DDOT":0},{"OBJECT_NAME":"NOAA 21 (JPSS-2)","OBJECT_ID":"2022-150A","EPOCH":"2026-03-28T21:27:08.967456","MEAN_MOTION":14.19557101,"ECCENTRICITY":0.00027516,"INCLINATION":98.7576,"RA_OF_ASC_NODE":27.9422,"ARG_OF_PERICENTER":73.0528,"MEAN_ANOMALY":287.095,"EPHEMERIS_TYPE":0,"CLASSIFICATION_TYPE":"U","NORAD_CAT_ID":54234,"ELEMENT_SET_NO":999,"REV_AT_EPOCH":17515,"BSTAR":5.5883148e-5,"MEAN_MOTION_DOT":7.4e-7,"MEAN_MOTION_DDOT":0},{"OBJECT_NAME":"METEOSAT-12 (MTG-I1)","OBJECT_ID":"2022-170C","EPOCH":"2026-03-28T19:55:03.838656","MEAN_MOTION":1.00272753,"ECCENTRICITY":0.00018691,"INCLINATION":0.7315,"RA_OF_ASC_NODE":25.4287,"ARG_OF_PERICENTER":290.1317,"MEAN_ANOMALY":169.087,"EPHEMERIS_TYPE":0,"CLASSIFICATION_TYPE":"U","NORAD_CAT_ID":54743,"ELEMENT_SET_NO":999,"REV_AT_EPOCH":1217,"BSTAR":0,"MEAN_MOTION_DOT":-2.6e-7,"MEAN_MOTION_DDOT":0},{"OBJECT_NAME":"TIANMU-1 03","OBJECT_ID":"2023-039A","EPOCH":"2026-03-28T22:14:10.707648","MEAN_MOTION":15.44878769,"ECCENTRICITY":0.0003405,"INCLINATION":97.5195,"RA_OF_ASC_NODE":258.9083,"ARG_OF_PERICENTER":48.0499,"MEAN_ANOMALY":312.1039,"EPHEMERIS_TYPE":0,"CLASSIFICATION_TYPE":"U","NORAD_CAT_ID":55973,"ELEMENT_SET_NO":999,"REV_AT_EPOCH":16843,"BSTAR":0.00040136992,"MEAN_MOTION_DOT":0.00018777,"MEAN_MOTION_DDOT":0},{"OBJECT_NAME":"TIANMU-1 04","OBJECT_ID":"2023-039B","EPOCH":"2026-03-28T22:40:23.326752","MEAN_MOTION":15.45320912,"ECCENTRICITY":0.00038893,"INCLINATION":97.5128,"RA_OF_ASC_NODE":258.0821,"ARG_OF_PERICENTER":40.7332,"MEAN_ANOMALY":319.4207,"EPHEMERIS_TYPE":0,"CLASSIFICATION_TYPE":"U","NORAD_CAT_ID":55974,"ELEMENT_SET_NO":999,"REV_AT_EPOCH":16844,"BSTAR":0.00046130259,"MEAN_MOTION_DOT":0.00021933,"MEAN_MOTION_DDOT":0},{"OBJECT_NAME":"TIANMU-1 05","OBJECT_ID":"2023-039C","EPOCH":"2026-03-28T21:41:32.599392","MEAN_MOTION":15.44817691,"ECCENTRICITY":0.00036391,"INCLINATION":97.5174,"RA_OF_ASC_NODE":258.5292,"ARG_OF_PERICENTER":67.6881,"MEAN_ANOMALY":292.4752,"EPHEMERIS_TYPE":0,"CLASSIFICATION_TYPE":"U","NORAD_CAT_ID":55975,"ELEMENT_SET_NO":999,"REV_AT_EPOCH":16841,"BSTAR":0.00041117118,"MEAN_MOTION_DOT":0.000192,"MEAN_MOTION_DDOT":0},{"OBJECT_NAME":"TIANMU-1 06","OBJECT_ID":"2023-039D","EPOCH":"2026-03-28T22:39:38.852352","MEAN_MOTION":15.45333657,"ECCENTRICITY":0.00037952,"INCLINATION":97.5184,"RA_OF_ASC_NODE":259.1291,"ARG_OF_PERICENTER":60.4618,"MEAN_ANOMALY":299.7009,"EPHEMERIS_TYPE":0,"CLASSIFICATION_TYPE":"U","NORAD_CAT_ID":55976,"ELEMENT_SET_NO":999,"REV_AT_EPOCH":16844,"BSTAR":0.00042323565,"MEAN_MOTION_DOT":0.00020119,"MEAN_MOTION_DDOT":0},{"OBJECT_NAME":"FENGYUN 3G","OBJECT_ID":"2023-055A","EPOCH":"2026-03-28T21:04:41.955168","MEAN_MOTION":15.53004214,"ECCENTRICITY":0.00047737,"INCLINATION":49.9934,"RA_OF_ASC_NODE":40.133,"ARG_OF_PERICENTER":15.0038,"MEAN_ANOMALY":345.107,"EPHEMERIS_TYPE":0,"CLASSIFICATION_TYPE":"U","NORAD_CAT_ID":56232,"ELEMENT_SET_NO":999,"REV_AT_EPOCH":16752,"BSTAR":0.0005628743,"MEAN_MOTION_DOT":0.00035525,"MEAN_MOTION_DDOT":0},{"OBJECT_NAME":"METEOR-M2 3","OBJECT_ID":"2023-091A","EPOCH":"2026-03-28T22:17:48.458112","MEAN_MOTION":14.24039559,"ECCENTRICITY":0.00047744,"INCLINATION":98.6172,"RA_OF_ASC_NODE":144.5177,"ARG_OF_PERICENTER":55.316,"MEAN_ANOMALY":304.8468,"EPHEMERIS_TYPE":0,"CLASSIFICATION_TYPE":"U","NORAD_CAT_ID":57166,"ELEMENT_SET_NO":999,"REV_AT_EPOCH":14309,"BSTAR":1.9952373e-5,"MEAN_MOTION_DOT":3.0e-8,"MEAN_MOTION_DDOT":0},{"OBJECT_NAME":"TIANMU-1 07","OBJECT_ID":"2023-101A","EPOCH":"2026-03-28T21:19:46.725600","MEAN_MOTION":15.29251403,"ECCENTRICITY":0.0004652,"INCLINATION":97.2691,"RA_OF_ASC_NODE":140.4067,"ARG_OF_PERICENTER":95.4112,"MEAN_ANOMALY":264.7659,"EPHEMERIS_TYPE":0,"CLASSIFICATION_TYPE":"U","NORAD_CAT_ID":57399,"ELEMENT_SET_NO":999,"REV_AT_EPOCH":14937,"BSTAR":0.00029192181,"MEAN_MOTION_DOT":8.215e-5,"MEAN_MOTION_DDOT":0},{"OBJECT_NAME":"TIANMU-1 08","OBJECT_ID":"2023-101B","EPOCH":"2026-03-26T18:18:43.842816","MEAN_MOTION":15.29307245,"ECCENTRICITY":0.00058156,"INCLINATION":97.2683,"RA_OF_ASC_NODE":138.1078,"ARG_OF_PERICENTER":81.6822,"MEAN_ANOMALY":278.5077,"EPHEMERIS_TYPE":0,"CLASSIFICATION_TYPE":"U","NORAD_CAT_ID":57400,"ELEMENT_SET_NO":999,"REV_AT_EPOCH":14904,"BSTAR":1.1604734e-5,"MEAN_MOTION_DOT":2.58e-6,"MEAN_MOTION_DDOT":0},{"OBJECT_NAME":"TIANMU-1 09","OBJECT_ID":"2023-101C","EPOCH":"2026-03-28T21:44:02.688288","MEAN_MOTION":15.29268538,"ECCENTRICITY":0.00051139,"INCLINATION":97.2639,"RA_OF_ASC_NODE":139.6635,"ARG_OF_PERICENTER":94.2461,"MEAN_ANOMALY":265.9364,"EPHEMERIS_TYPE":0,"CLASSIFICATION_TYPE":"U","NORAD_CAT_ID":57401,"ELEMENT_SET_NO":999,"REV_AT_EPOCH":14937,"BSTAR":0.00029204255,"MEAN_MOTION_DOT":8.223e-5,"MEAN_MOTION_DDOT":0}]
